[{"OBJECT_NAME":"STARLINK-30510","OBJECT_ID":"2023-151T","EPOCH":"2026-03-08T19:08:18.718368","MEAN_MOTION":15.02539259,"ECCENTRICITY":0.00012768,"INCLINATION":43.006,"RA_OF_ASC_NODE":356.8477,"ARG_OF_PERICENTER":250.8138,"MEAN_ANOMALY":109.2566,"EPHEMERIS_TYPE":0,"CLASSIFICATION_TYPE":"U","NORAD_CAT_ID":57981,"ELEMENT_SET_NO":999,"REV_AT_EPOCH":13544,"BSTAR":2.1665047e-5,"MEAN_MOTION_DOT":8.9e-7,"MEAN_MOTION_DDOT":0},{"OBJECT_NAME":"CZ-4B DEB","OBJECT_ID":"2008-053M","EPOCH":"2026-03-05T07:18:48.921696","MEAN_MOTION":15.08195439,"ECCENTRICITY":0.0017401,"INCLINATION":97.8281,"RA_OF_ASC_NODE":90.6528,"ARG_OF_PERICENTER":258.7901,"MEAN_ANOMALY":101.1371,"EPHEMERIS_TYPE":0,"CLASSIFICATION_TYPE":"U","NORAD_CAT_ID":44593,"ELEMENT_SET_NO":999,"REV_AT_EPOCH":67199,"BSTAR":0.00019653,"MEAN_MOTION_DOT":2.982e-5,"MEAN_MOTION_DDOT":0}]
